ORBCOMM FM33            
1 25983U 99065D   24231.79218167  .00003929  00000+0  13284-2 0  9991
2 25983  45.0302 354.8350 0007872 327.5516  32.4848 14.38159667292501
ORBCOMM FM35            
1 25985U 99065F   24231.98405222  .00003290  00000+0  11808-2 0  9995
2 25985  45.0394  84.1489 0002937 327.8753  32.1916 14.35536739291523
ORBCOMM FM34            
1 25986U 99065G   24231.88661515  .00003033  00000+0  10928-2 0  9991
2 25986  45.0387  85.1589 0003246 264.4951  95.5526 14.35523916291431
ORBCOMM FM38            
1 33060U 08031A   24231.56122534  .00006348  00000+0  89147-3 0  9996
2 33060  48.4410 314.5560 0005289 193.0292 167.0486 14.78316751869917
ORBCOMM FM41            
1 33061U 08031B   24232.23925324  .00005626  00000+0  79855-3 0  9993
2 33061  48.4452 318.2026 0004224 182.9386 204.9670 14.78044865869966
ORBCOMM FM39            
1 33063U 08031D   24231.72162017  .00005722  00000+0  83352-3 0  9994
2 33063  48.4419 349.9947 0006744 147.5021 212.6309 14.76899645869042
